OBJECT_NAME,OBJECT_ID,EPOCH,MEAN_MOTION,ECCENTRICITY,INCLINATION,RA_OF_ASC_NODE,ARG_OF_PERICENTER,MEAN_ANOMALY,NORAD_CAT_ID,ELEMENT_SET_NO,REV_AT_EPOCH,BSTAR,MEAN_MOTION_DOT,MEAN_MOTION_DDOT
STARLINK-6141,2023-090M,2026-03-20T17:46:39.785664,15.02531307,0.00013362,43.0022,214.7816,274.0287,86.0403,57112.0,999.0,15207.0,8.9958238e-05,1.012e-05,0.0
STARLINK-6142,2023-090N,2026-03-21T01:29:19.477536,15.02531091,0.00020231,43.0028,212.8943,271.7074,88.3536,57113.0,999.0,15212.0,0.00012121108,1.434e-05,0.0
STARLINK-6125,2023-090P,2026-03-21T01:24:31.375872,15.0253686,0.00013483,43.0024,212.8637,274.9172,85.1517,57114.0,999.0,15212.0,1.0648633e-05,-6e-07,0.0
STARLINK-6085,2023-090Q,2026-03-20T16:36:10.609344,15.13525836,0.0020553,42.9981,202.5575,273.4561,86.3935,57115.0,999.0,15221.0,0.00082852341,0.00014986,0.0
STARLINK-6129,2023-090R,2026-03-21T01:34:06.732480,15.02537256,0.00013669,43.0018,212.9176,271.8697,88.1988,57116.0,999.0,15212.0,-2.715861e-06,-2.4e-06,0.0
STARLINK-6148,2023-090S,2026-03-21T01:11:45.510720,15.02542425,0.00013684,43.0033,212.7992,273.6756,86.393,57117.0,999.0,15211.0,2.8762279e-05,1.85e-06,0.0
STARLINK-6150,2023-090U,2026-03-21T01:05:20.712768,15.02533757,0.00012375,43.002,212.7647,269.9892,90.0809,57119.0,999.0,15212.0,9.291674e-06,-7.8e-07,0.0
STARLINK-6147,2023-090V,2026-03-21T01:14:55.560480,15.02623381,0.0001398,43.0035,212.8147,287.6577,72.4113,57120.0,999.0,15212.0,-0.001373196,-0.00018747,0.0
STARLINK-6152,2023-090W,2026-03-20T18:29:38.566464,15.02539874,0.00013303,43.0033,214.1434,274.1687,85.9003,57121.0,999.0,15189.0,-1.5322039e-05,-4.11e-06,0.0
STARLINK-6149,2023-090X,2026-03-20T18:37:38.294688,15.0253542,0.00013306,43.0032,214.1855,273.0052,87.0638,57122.0,999.0,15208.0,1.5515786e-05,6e-08,0.0
STARLINK-6154,2023-090Y,2026-03-20T15:13:23.806848,15.02537522,0.0002571,43.0074,214.8446,284.2103,75.8453,57123.0,999.0,15187.0,6.3781e-05,6.58e-06,0.0
STARLINK-6146,2023-090Z,2026-03-20T18:34:26.427936,15.02537599,0.00013082,43.0031,214.1676,270.1485,89.9207,57124.0,999.0,15208.0,7.123743e-05,7.59e-06,0.0
STARLINK-6100,2023-090AA,2026-03-21T06:00:02.999808,15.22327461,0.00021601,43.0002,197.8366,268.0768,102.1818,57125.0,999.0,572.0,0.041051598,0.01039473,0.0
STARLINK-6167,2023-090AB,2026-03-20T16:57:07.840800,15.02541428,0.00015843,43.0047,214.5217,275.5258,84.5404,57126.0,999.0,15207.0,-0.00021830344,-3.152e-05,0.0
STARLINK-6165,2023-090AC,2026-03-21T02:17:05.429472,15.02565547,0.00013878,43.0034,212.277,255.519,104.5498,57127.0,999.0,15194.0,-0.00044098658,-6.16e-05,0.0
STARLINK-6163,2023-090AD,2026-03-20T18:28:02.760096,15.0253743,0.00015216,43.0035,214.1343,280.6474,79.4197,57128.0,999.0,15189.0,5.4932252e-05,5.38e-06,0.0
STARLINK-6170,2023-090AE,2026-03-21T06:00:02.999808,15.20667985,0.00017988,43.0029,198.1137,268.4602,346.5888,57129.0,999.0,578.0,0.026213741,0.00624228,0.0
STARLINK-6172,2023-090AF,2026-03-21T02:18:41.657472,15.02537008,0.00012675,43.0023,212.2852,269.7579,90.3118,57130.0,999.0,15194.0,5.4555555e-05,5.33e-06,0.0
STARLINK-6162,2023-090AG,2026-03-21T06:00:02.999808,15.25389138,0.00012795,43.0008,197.5717,269.3113,213.6611,57131.0,999.0,578.0,0.037665233,0.01044879,0.0
STARLINK-6128,2023-090AH,2026-03-21T02:09:06.825312,15.02532292,0.00024288,43.0057,212.232,259.7217,100.3352,57132.0,999.0,15194.0,-5.6470099e-05,-9.67e-06,0.0
STARLINK-6143,2023-090AJ,2026-03-21T06:00:02.999808,15.23027297,0.00013228,43.0006,197.5452,276.2975,217.7386,57133.0,999.0,572.0,0.036298968,0.00943161,0.0
STARLINK-6133,2023-090AK,2026-03-21T06:00:02.999808,15.24092427,0.00014985,42.9999,197.6512,280.8444,169.3723,57134.0,999.0,578.0,0.037292649,0.01005343,0.0
STARLINK-6127,2023-090AL,2026-03-21T06:00:02.999808,15.23303756,0.00015975,43.0,197.3883,250.3393,309.1483,57135.0,999.0,577.0,0.035796332,0.00937221,0.0
STARLINK-6112,2023-090AM,2026-03-21T06:00:02.999808,15.252706,0.00013323,43.0008,197.5275,269.6105,231.9395,57136.0,999.0,567.0,0.036986493,0.01035375,0.0
STARLINK-5347,2023-090AN,2026-03-21T06:00:02.999808,15.24112445,0.00013234,43.0006,197.5357,272.0851,225.4139,57137.0,999.0,572.0,0.038639406,0.01045921,0.0
STARLINK-5336,2023-090AP,2026-03-21T06:00:02.999808,15.24346782,0.00014151,43.0005,197.507,272.6622,237.6417,57138.0,999.0,577.0,0.0351685,0.00950824,0.0
STARLINK-5355,2023-090AQ,2026-03-21T06:00:02.999808,15.22301015,0.00013726,43.0007,197.5152,271.9432,233.4129,57139.0,999.0,558.0,0.035743816,0.00906195,0.0
STARLINK-5357,2023-090AS,2026-03-21T06:00:02.999808,15.23850594,0.00016659,43.0,197.3422,256.9654,321.0784,57141.0,999.0,577.0,0.036982613,0.00988405,0.0
STARLINK-5361,2023-090AT,2026-03-21T06:00:02.999808,15.22576721,0.00012282,43.0003,197.5657,255.9692,226.9436,57142.0,999.0,577.0,0.041724005,0.01066462,0.0
