STARLINK-6141           
1 57112U 23090M   26079.74073826  .00001012  00000+0  89958-4 0  9997
2 57112  43.0022 214.7816 0001336 274.0287  86.0403 15.02531307152074
STARLINK-6142           
1 57113U 23090N   26080.06203099  .00001434  00000+0  12121-3 0  9997
2 57113  43.0028 212.8943 0002023 271.7074  88.3536 15.02531091152121
STARLINK-6125           
1 57114U 23090P   26080.05869648 -.00000060  00000+0  10649-4 0  9994
2 57114  43.0024 212.8637 0001348 274.9172  85.1517 15.02536860152124
STARLINK-6085           
1 57115U 23090Q   26079.69178946  .00014986  00000+0  82852-3 0  9992
2 57115  42.9981 202.5575 0020553 273.4561  86.3935 15.13525836152217
STARLINK-6129           
1 57116U 23090R   26080.06535570 -.00000240  00000+0 -27159-5 0  9997
2 57116  43.0018 212.9176 0001366 271.8697  88.1988 15.02537256152121
STARLINK-6148           
1 57117U 23090S   26080.04983230  .00000185  00000+0  28762-4 0  9992
2 57117  43.0033 212.7992 0001368 273.6756  86.3930 15.02542425152111
STARLINK-6150           
1 57119U 23090U   26080.04537862 -.00000078  00000+0  92917-5 0  9996
2 57119  43.0020 212.7647 0001237 269.9892  90.0809 15.02533757152126
STARLINK-6147           
1 57120U 23090V   26080.05203195 -.00018747  00000+0 -13732-2 0  9996
2 57120  43.0035 212.8147 0001398 287.6577  72.4113 15.02623381152120
STARLINK-6152           
1 57121U 23090W   26079.77058526 -.00000411  00000+0 -15322-4 0  9998
2 57121  43.0033 214.1434 0001330 274.1687  85.9003 15.02539874151895
STARLINK-6149           
1 57122U 23090X   26079.77613767  .00000006  00000+0  15516-4 0  9996
2 57122  43.0032 214.1855 0001330 273.0052  87.0638 15.02535420152088
STARLINK-6154           
1 57123U 23090Y   26079.63430332  .00000658  00000+0  63781-4 0  9997
2 57123  43.0074 214.8446 0002571 284.2103  75.8453 15.02537522151878
STARLINK-6146           
1 57124U 23090Z   26079.77391699  .00000759  00000+0  71237-4 0  9992
2 57124  43.0031 214.1676 0001308 270.1485  89.9207 15.02537599152085
STARLINK-6100           
1 57125U 23090AA  26080.25003472  .01039473  00000+0  41052-1 0  9992
2 57125  43.0002 197.8366 0002160 268.0768 102.1818 15.22327461  5725
STARLINK-6167           
1 57126U 23090AB  26079.70634075 -.00003152  00000+0 -21830-3 0  9990
2 57126  43.0047 214.5217 0001584 275.5258  84.5404 15.02541428152077
STARLINK-6165           
1 57127U 23090AC  26080.09520173 -.00006160  00000+0 -44099-3 0  9992
2 57127  43.0034 212.2770 0001387 255.5190 104.5498 15.02565547151946
STARLINK-6163           
1 57128U 23090AD  26079.76947639  .00000538  00000+0  54932-4 0  9994
2 57128  43.0035 214.1343 0001521 280.6474  79.4197 15.02537430151899
STARLINK-6170           
1 57129U 23090AE  26080.25003472  .00624228  00000+0  26214-1 0  9996
2 57129  43.0029 198.1137 0001798 268.4602 346.5888 15.20667985  5788
STARLINK-6172           
1 57130U 23090AF  26080.09631548  .00000533  00000+0  54556-4 0  9991
2 57130  43.0023 212.2852 0001267 269.7579  90.3118 15.02537008151946
STARLINK-6162           
1 57131U 23090AG  26080.25003472  .01044879  00000+0  37665-1 0  9990
2 57131  43.0008 197.5717 0001279 269.3113 213.6611 15.25389138  5780
STARLINK-6128           
1 57132U 23090AH  26080.08966233 -.00000967  00000+0 -56470-4 0  9994
2 57132  43.0057 212.2320 0002428 259.7217 100.3352 15.02532292151945
STARLINK-6143           
1 57133U 23090AJ  26080.25003472  .00943161  00000+0  36299-1 0  9995
2 57133  43.0006 197.5452 0001322 276.2975 217.7386 15.23027297  5729
STARLINK-6133           
1 57134U 23090AK  26080.25003472  .01005343  00000+0  37293-1 0  9993
2 57134  42.9999 197.6512 0001498 280.8444 169.3723 15.24092427  5784
STARLINK-6127           
1 57135U 23090AL  26080.25003472  .00937221  00000+0  35796-1 0  9998
2 57135  43.0000 197.3883 0001597 250.3393 309.1483 15.23303756  5778
STARLINK-6112           
1 57136U 23090AM  26080.25003472  .01035375  00000+0  36986-1 0  9991
2 57136  43.0008 197.5275 0001332 269.6105 231.9395 15.25270600  5671
STARLINK-5347           
1 57137U 23090AN  26080.25003472  .01045921  00000+0  38639-1 0  9997
2 57137  43.0006 197.5357 0001323 272.0851 225.4139 15.24112445  5728
STARLINK-5336           
1 57138U 23090AP  26080.25003472  .00950824  00000+0  35168-1 0  9998
2 57138  43.0005 197.5070 0001415 272.6622 237.6417 15.24346782  5776
STARLINK-5355           
1 57139U 23090AQ  26080.25003472  .00906195  00000+0  35744-1 0  9991
2 57139  43.0007 197.5152 0001372 271.9432 233.4129 15.22301015  5584
STARLINK-5357           
1 57141U 23090AS  26080.25003472  .00988405  00000+0  36983-1 0  9994
2 57141  43.0000 197.3422 0001665 256.9654 321.0784 15.23850594  5776
STARLINK-5361           
1 57142U 23090AT  26080.25003472  .01066462  00000+0  41724-1 0  9995
2 57142  43.0003 197.5657 0001228 255.9692 226.9436 15.22576721  5771
